[{"OBJECT_NAME":"STARLINK-11162 [DTC]","OBJECT_ID":"2024-118L","EPOCH":"2025-10-09T04:41:53.911104","MEAN_MOTION":15.69697004,"ECCENTRICITY":0.00010943,"INCLINATION":53.1584,"RA_OF_ASC_NODE":247.765,"ARG_OF_PERICENTER":88.7975,"MEAN_ANOMALY":271.3168,"EPHEMERIS_TYPE":0,"CLASSIFICATION_TYPE":"U","NORAD_CAT_ID":60123,"ELEMENT_SET_NO":999,"REV_AT_EPOCH":7420,"BSTAR":8.63401e-6,"MEAN_MOTION_DOT":4.57e-6,"MEAN_MOTION_DDOT":0},{"OBJECT_NAME":"STARLINK-11161 [DTC]","OBJECT_ID":"2024-118M","EPOCH":"2025-10-09T04:34:58.279584","MEAN_MOTION":15.69713793,"ECCENTRICITY":0.00011029,"INCLINATION":53.1589,"RA_OF_ASC_NODE":248.4649,"ARG_OF_PERICENTER":95.514,"MEAN_ANOMALY":264.6004,"EPHEMERIS_TYPE":0,"CLASSIFICATION_TYPE":"U","NORAD_CAT_ID":60124,"ELEMENT_SET_NO":999,"REV_AT_EPOCH":7419,"BSTAR":-7.96687e-7,"MEAN_MOTION_DOT":-6.85e-6,"MEAN_MOTION_DDOT":0},{"OBJECT_NAME":"STARLINK-11160 [DTC]","OBJECT_ID":"2024-118N","EPOCH":"2025-10-09T05:03:05.606784","MEAN_MOTION":15.69688019,"ECCENTRICITY":0.0001656,"INCLINATION":53.1575,"RA_OF_ASC_NODE":247.8605,"ARG_OF_PERICENTER":59.2188,"MEAN_ANOMALY":300.8993,"EPHEMERIS_TYPE":0,"CLASSIFICATION_TYPE":"U","NORAD_CAT_ID":60125,"ELEMENT_SET_NO":999,"REV_AT_EPOCH":7420,"BSTAR":8.183899e-6,"MEAN_MOTION_DOT":4.01e-6,"MEAN_MOTION_DDOT":0},{"OBJECT_NAME":"STARLINK-31846","OBJECT_ID":"2024-118P","EPOCH":"2025-10-09T01:45:44.766720","MEAN_MOTION":15.30181218,"ECCENTRICITY":0.000154,"INCLINATION":53.1595,"RA_OF_ASC_NODE":10.934,"ARG_OF_PERICENTER":115.0336,"MEAN_ANOMALY":245.0824,"EPHEMERIS_TYPE":0,"CLASSIFICATION_TYPE":"U","NORAD_CAT_ID":60126,"ELEMENT_SET_NO":999,"REV_AT_EPOCH":7248,"BSTAR":1.8785697e-5,"MEAN_MOTION_DOT":1.97e-6,"MEAN_MOTION_DDOT":0},{"OBJECT_NAME":"STARLINK-31840","OBJECT_ID":"2024-118Q","EPOCH":"2025-10-09T06:37:00.938784","MEAN_MOTION":15.30201955,"ECCENTRICITY":9.511e-5,"INCLINATION":53.1619,"RA_OF_ASC_NODE":10.0651,"ARG_OF_PERICENTER":87.7965,"MEAN_ANOMALY":272.3145,"EPHEMERIS_TYPE":0,"CLASSIFICATION_TYPE":"U","NORAD_CAT_ID":60127,"ELEMENT_SET_NO":999,"REV_AT_EPOCH":7251,"BSTAR":2.879999e-6,"MEAN_MOTION_DOT":-2.74e-6,"MEAN_MOTION_DDOT":0},{"OBJECT_NAME":"STARLINK-31813","OBJECT_ID":"2024-118R","EPOCH":"2025-10-08T22:42:13.358016","MEAN_MOTION":15.30180188,"ECCENTRICITY":7.61e-5,"INCLINATION":53.1623,"RA_OF_ASC_NODE":11.5609,"ARG_OF_PERICENTER":96.8125,"MEAN_ANOMALY":263.2962,"EPHEMERIS_TYPE":0,"CLASSIFICATION_TYPE":"U","NORAD_CAT_ID":60128,"ELEMENT_SET_NO":999,"REV_AT_EPOCH":7246,"BSTAR":-3.5634e-5,"MEAN_MOTION_DOT":-1.413e-5,"MEAN_MOTION_DDOT":0},{"OBJECT_NAME":"STARLINK-31845","OBJECT_ID":"2024-118S","EPOCH":"2025-10-08T14:48:08.352576","MEAN_MOTION":15.30185079,"ECCENTRICITY":8.449e-5,"INCLINATION":53.1603,"RA_OF_ASC_NODE":10.9242,"ARG_OF_PERICENTER":104.443,"MEAN_ANOMALY":255.6665,"EPHEMERIS_TYPE":0,"CLASSIFICATION_TYPE":"U","NORAD_CAT_ID":60129,"ELEMENT_SET_NO":999,"REV_AT_EPOCH":7244,"BSTAR":-4.3889081e-5,"MEAN_MOTION_DOT":-1.658e-5,"MEAN_MOTION_DDOT":0},{"OBJECT_NAME":"STARLINK-31838","OBJECT_ID":"2024-118T","EPOCH":"2025-10-09T06:46:07.747104","MEAN_MOTION":15.30236265,"ECCENTRICITY":0.00013805,"INCLINATION":53.1617,"RA_OF_ASC_NODE":10.1007,"ARG_OF_PERICENTER":103.1855,"MEAN_ANOMALY":256.93,"EPHEMERIS_TYPE":0,"CLASSIFICATION_TYPE":"U","NORAD_CAT_ID":60130,"ELEMENT_SET_NO":999,"REV_AT_EPOCH":7251,"BSTAR":-0.00029245634,"MEAN_MOTION_DOT":-9.02e-5,"MEAN_MOTION_DDOT":0},{"OBJECT_NAME":"STARLINK-31785","OBJECT_ID":"2024-118U","EPOCH":"2025-10-09T04:47:46.241664","MEAN_MOTION":15.30211445,"ECCENTRICITY":0.00012,"INCLINATION":53.1614,"RA_OF_ASC_NODE":10.2985,"ARG_OF_PERICENTER":90.3576,"MEAN_ANOMALY":269.7562,"EPHEMERIS_TYPE":0,"CLASSIFICATION_TYPE":"U","NORAD_CAT_ID":60131,"ELEMENT_SET_NO":999,"REV_AT_EPOCH":7250,"BSTAR":-0.00020664999,"MEAN_MOTION_DOT":-6.476e-5,"MEAN_MOTION_DDOT":0},{"OBJECT_NAME":"STARLINK-31792","OBJECT_ID":"2024-118V","EPOCH":"2025-10-09T06:04:21.360864","MEAN_MOTION":15.30173715,"ECCENTRICITY":0.00013259,"INCLINATION":53.1617,"RA_OF_ASC_NODE":7.7455,"ARG_OF_PERICENTER":96.1628,"MEAN_ANOMALY":263.9524,"EPHEMERIS_TYPE":0,"CLASSIFICATION_TYPE":"U","NORAD_CAT_ID":60132,"ELEMENT_SET_NO":999,"REV_AT_EPOCH":7254,"BSTAR":-1.1841848e-5,"MEAN_MOTION_DOT":-7.1e-6,"MEAN_MOTION_DDOT":0},{"OBJECT_NAME":"STARLINK-32043","OBJECT_ID":"2024-120A","EPOCH":"2025-10-09T06:24:28.875168","MEAN_MOTION":15.30211579,"ECCENTRICITY":0.00013463,"INCLINATION":53.1601,"RA_OF_ASC_NODE":303.1984,"ARG_OF_PERICENTER":85.9219,"MEAN_ANOMALY":274.1935,"EPHEMERIS_TYPE":0,"CLASSIFICATION_TYPE":"U","NORAD_CAT_ID":60135,"ELEMENT_SET_NO":999,"REV_AT_EPOCH":7319,"BSTAR":9.1215337e-5,"MEAN_MOTION_DOT":2.344e-5,"MEAN_MOTION_DDOT":0},{"OBJECT_NAME":"STARLINK-32112","OBJECT_ID":"2024-120B","EPOCH":"2025-10-09T05:36:03.091968","MEAN_MOTION":15.30186585,"ECCENTRICITY":0.00013157,"INCLINATION":53.1602,"RA_OF_ASC_NODE":303.7018,"ARG_OF_PERICENTER":97.7973,"MEAN_ANOMALY":262.3177,"EPHEMERIS_TYPE":0,"CLASSIFICATION_TYPE":"U","NORAD_CAT_ID":60136,"ELEMENT_SET_NO":999,"REV_AT_EPOCH":7326,"BSTAR":-3.0480093e-5,"MEAN_MOTION_DOT":-1.261e-5,"MEAN_MOTION_DDOT":0},{"OBJECT_NAME":"STARLINK-32050","OBJECT_ID":"2024-120C","EPOCH":"2025-10-09T05:45:09.954720","MEAN_MOTION":15.30180899,"ECCENTRICITY":0.00015194,"INCLINATION":53.1598,"RA_OF_ASC_NODE":303.7424,"ARG_OF_PERICENTER":93.8158,"MEAN_ANOMALY":266.3017,"EPHEMERIS_TYPE":0,"CLASSIFICATION_TYPE":"U","NORAD_CAT_ID":60137,"ELEMENT_SET_NO":999,"REV_AT_EPOCH":7318,"BSTAR":-0.00010676169,"MEAN_MOTION_DOT":-3.518e-5,"MEAN_MOTION_DDOT":0},{"OBJECT_NAME":"STARLINK-32025","OBJECT_ID":"2024-120D","EPOCH":"2025-10-09T06:00:11.761632","MEAN_MOTION":15.30186514,"ECCENTRICITY":0.00012536,"INCLINATION":53.1592,"RA_OF_ASC_NODE":303.0916,"ARG_OF_PERICENTER":93.5565,"MEAN_ANOMALY":266.5579,"EPHEMERIS_TYPE":0,"CLASSIFICATION_TYPE":"U","NORAD_CAT_ID":60138,"ELEMENT_SET_NO":999,"REV_AT_EPOCH":7319,"BSTAR":-2.2260475e-5,"MEAN_MOTION_DOT":-1.018e-5,"MEAN_MOTION_DDOT":0},{"OBJECT_NAME":"STARLINK-31867","OBJECT_ID":"2024-120E","EPOCH":"2025-10-09T05:22:46.979904","MEAN_MOTION":15.31087501,"ECCENTRICITY":0.00019022,"INCLINATION":53.158,"RA_OF_ASC_NODE":303.655,"ARG_OF_PERICENTER":83.7409,"MEAN_ANOMALY":276.3809,"EPHEMERIS_TYPE":0,"CLASSIFICATION_TYPE":"U","NORAD_CAT_ID":60139,"ELEMENT_SET_NO":999,"REV_AT_EPOCH":7318,"BSTAR":0.0006974944,"MEAN_MOTION_DOT":0.00020932,"MEAN_MOTION_DDOT":0},{"OBJECT_NAME":"STARLINK-31694","OBJECT_ID":"2024-120F","EPOCH":"2025-10-09T05:33:00.194400","MEAN_MOTION":15.30191282,"ECCENTRICITY":0.00011903,"INCLINATION":53.1604,"RA_OF_ASC_NODE":303.6883,"ARG_OF_PERICENTER":87.4862,"MEAN_ANOMALY":272.6275,"EPHEMERIS_TYPE":0,"CLASSIFICATION_TYPE":"U","NORAD_CAT_ID":60140,"ELEMENT_SET_NO":999,"REV_AT_EPOCH":7326,"BSTAR":-3.0530412e-5,"MEAN_MOTION_DOT":-1.263e-5,"MEAN_MOTION_DDOT":0}]
