STARLINK-11162 [DTC]    
1 60123U 24118L   25282.19576286  .00000457  00000+0  86340-5 0  9992
2 60123  53.1584 247.7650 0001094  88.7975 271.3168 15.69697004 74207
STARLINK-11161 [DTC]    
1 60124U 24118M   25282.19095231 -.00000685  00000+0 -79669-6 0  9991
2 60124  53.1589 248.4649 0001102  95.5140 264.6004 15.69713793 74195
STARLINK-11160 [DTC]    
1 60125U 24118N   25282.21048156  .00000401  00000+0  81839-5 0  9994
2 60125  53.1575 247.8605 0001656  59.2188 300.8993 15.69688019 74203
STARLINK-31846          
1 60126U 24118P   25282.07343480  .00000197  00000+0  18786-4 0  9999
2 60126  53.1595  10.9340 0001540 115.0336 245.0824 15.30181218 72487
STARLINK-31840          
1 60127U 24118Q   25282.27570531 -.00000274  00000+0  28800-5 0  9997
2 60127  53.1619  10.0651 0000951  87.7965 272.3145 15.30201955 72513
STARLINK-31813          
1 60128U 24118R   25281.94598794 -.00001413  00000+0 -35634-4 0  9991
2 60128  53.1623  11.5609 0000761  96.8125 263.2962 15.30180188 72460
STARLINK-31845          
1 60129U 24118S   25281.61676334 -.00001658  00000+0 -43889-4 0  9995
2 60129  53.1603  10.9242 0000844 104.4430 255.6665 15.30185079 72449
STARLINK-31838          
1 60130U 24118T   25282.28203411 -.00009020  00000+0 -29246-3 0  9994
2 60130  53.1617  10.1007 0001380 103.1855 256.9300 15.30236265 72512
STARLINK-31785          
1 60131U 24118U   25282.19984076 -.00006476  00000+0 -20665-3 0  9996
2 60131  53.1614  10.2985 0001200  90.3576 269.7562 15.30211445 72508
STARLINK-31792          
1 60132U 24118V   25282.25302501 -.00000710  00000+0 -11842-4 0  9994
2 60132  53.1617   7.7455 0001325  96.1628 263.9524 15.30173715 72540
STARLINK-32043          
1 60135U 24120A   25282.26700087  .00002344  00000+0  91215-4 0  9997
2 60135  53.1601 303.1984 0001346  85.9219 274.1935 15.30211579 73194
STARLINK-32112          
1 60136U 24120B   25282.23336912 -.00001261  00000+0 -30480-4 0  9993
2 60136  53.1602 303.7018 0001315  97.7973 262.3177 15.30186585 73267
STARLINK-32050          
1 60137U 24120C   25282.23969855 -.00003518  00000+0 -10676-3 0  9993
2 60137  53.1598 303.7424 0001519  93.8158 266.3017 15.30180899 73181
STARLINK-32025          
1 60138U 24120D   25282.25013613 -.00001018  00000+0 -22260-4 0  9994
2 60138  53.1592 303.0916 0001253  93.5565 266.5579 15.30186514 73195
STARLINK-31867          
1 60139U 24120E   25282.22415486  .00020932  00000+0  69749-3 0  9992
2 60139  53.1580 303.6550 0001902  83.7409 276.3809 15.31087501 73183
STARLINK-31694          
1 60140U 24120F   25282.23125225 -.00001263  00000+0 -30530-4 0  9999
2 60140  53.1604 303.6883 0001190  87.4862 272.6275 15.30191282 73260
